[Satellite]
VERSION=1.1
NAME=FORMOSAT 3F
NICKNAME=FORMOSAT 3F
TLE1=1 29052U 06011F   17186.24271226  .00000094  00000-0  53138-4 0  9992
TLE2=2 29052  72.0326 203.0856 0038480  74.9921 285.5470 14.28690081585692
